[{"OBJECT_NAME":"OBJECT D","OBJECT_ID":"2024-174D","EPOCH":"2026-03-10T00:15:10.483200","MEAN_MOTION":15.28039787,"ECCENTRICITY":0.00110644,"INCLINATION":97.4441,"RA_OF_ASC_NODE":80.4677,"ARG_OF_PERICENTER":212.9968,"MEAN_ANOMALY":147.0582,"EPHEMERIS_TYPE":0,"CLASSIFICATION_TYPE":"U","NORAD_CAT_ID":61241,"ELEMENT_SET_NO":999,"REV_AT_EPOCH":8076,"BSTAR":0.00036340099,"MEAN_MOTION_DOT":9.884e-5,"MEAN_MOTION_DDOT":0},{"OBJECT_NAME":"STARLINK-35384","OBJECT_ID":"2025-224C","EPOCH":"2026-03-09T02:31:41.882304","MEAN_MOTION":15.30204517,"ECCENTRICITY":8.099e-5,"INCLINATION":53.1627,"RA_OF_ASC_NODE":14.1515,"ARG_OF_PERICENTER":90.1051,"MEAN_ANOMALY":270.0043,"EPHEMERIS_TYPE":0,"CLASSIFICATION_TYPE":"U","NORAD_CAT_ID":65884,"ELEMENT_SET_NO":999,"REV_AT_EPOCH":2473,"BSTAR":0.0012035157,"MEAN_MOTION_DOT":0.00035461,"MEAN_MOTION_DDOT":0}]
